start=new Date('2022-11-10T00:00:00.000Z').valueOf();
sats=[{"MEAN_MOTION":"15.08886337","LAUNCH_DATE":"2022-01-06","BSTAR":"0.00051548000000","SEMIMAJOR_AXIS":"6917.739","RCS_SIZE":"LARGE","EPOCH":"2022-11-09T04:32:14.405568","OBJECT_TYPE":"PAYLOAD","COUNTRY_CODE":"US","TIME_SYSTEM":"UTC","MEAN_ELEMENT_THEORY":"SGP4","NORAD_CAT_ID":"50816","MEAN_ANOMALY":"325.9925","EPHEMERIS_TYPE":"0","OBJECT_ID":"2022-001P","TLE_LINE2":"2 50816  53.2157 230.2151 0002305  34.1215 325.9925 15.08886337 46751","TLE_LINE1":"1 50816U 22001P   22313.18905562  .00007936  00000-0  51548-3 0  9993","DECAY_DATE":null,"REF_FRAME":"TEME","MEAN_MOTION_DOT":"0.00007936","INCLINATION":"53.2157","ECCENTRICITY":"0.00023050","PERIOD":"95.435","SITE":"AFETR","MEAN_MOTION_DDOT":"0.0000000000000","ARG_OF_PERICENTER":"34.1215","PERIAPSIS":"538.009","FILE":"3649526","OBJECT_NAME":"STARLINK-3342","APOAPSIS":"541.198","REV_AT_EPOCH":"4675","GP_ID":"217239722","RA_OF_ASC_NODE":"230.2151","CENTER_NAME":"EARTH","ELEMENT_SET_NO":"999","CLASSIFICATION_TYPE":"U"},{"GP_ID":"217250628","CENTER_NAME":"EARTH","RA_OF_ASC_NODE":"227.4232","ELEMENT_SET_NO":"999","CLASSIFICATION_TYPE":"U","ARG_OF_PERICENTER":"41.2211","MEAN_MOTION_DDOT":"0.0000000000000","PERIAPSIS":"538.473","FILE":"3649915","OBJECT_NAME":"STARLINK-3341","REV_AT_EPOCH":"4810","APOAPSIS":"541.111","TIME_SYSTEM":"UTC","MEAN_ANOMALY":"318.8925","NORAD_CAT_ID":"50817","EPHEMERIS_TYPE":"0","MEAN_ELEMENT_THEORY":"SGP4","TLE_LINE2":"2 50817  53.2174 227.4232 0001906  41.2211 318.8925 15.08824765 48109","TLE_LINE1":"1 50817U 22001Q   22313.81098675 -.00017580  00000-0 -10896-2 0  9990","DECAY_DATE":null,"MEAN_MOTION_DOT":"-0.00017580","REF_FRAME":"TEME","INCLINATION":"53.2174","OBJECT_ID":"2022-001Q","PERIOD":"95.439","SITE":"AFETR","ECCENTRICITY":"0.00019060","BSTAR":"-0.00108960000000","LAUNCH_DATE":"2022-01-06","MEAN_MOTION":"15.08824765","EPOCH":"2022-11-09T19:27:49.255200","SEMIMAJOR_AXIS":"6917.927","RCS_SIZE":"LARGE","COUNTRY_CODE":"US","OBJECT_TYPE":"PAYLOAD"},{"GP_ID":"217238233","CENTER_NAME":"EARTH","RA_OF_ASC_NODE":"230.1613","ELEMENT_SET_NO":"999","CLASSIFICATION_TYPE":"U","ARG_OF_PERICENTER":"36.3884","MEAN_MOTION_DDOT":"0.0000000000000","PERIAPSIS":"538.174","FILE":"3649526","OBJECT_NAME":"STARLINK-3336","REV_AT_EPOCH":"4675","APOAPSIS":"541.111","TIME_SYSTEM":"UTC","NORAD_CAT_ID":"50818","MEAN_ANOMALY":"323.7252","EPHEMERIS_TYPE":"0","MEAN_ELEMENT_THEORY":"SGP4","TLE_LINE2":"2 50818  53.2169 230.1613 0002123  36.3884 323.7252 15.08873647 46751","TLE_LINE1":"1 50818U 22001R   22313.19641466  .00001859  00000-0  13473-3 0  9999","DECAY_DATE":null,"MEAN_MOTION_DOT":"0.00001859","REF_FRAME":"TEME","INCLINATION":"53.2169","OBJECT_ID":"2022-001R","PERIOD":"95.435","SITE":"AFETR","ECCENTRICITY":"0.00021230","BSTAR":"0.00013473000000","LAUNCH_DATE":"2022-01-06","MEAN_MOTION":"15.08873647","EPOCH":"2022-11-09T04:42:50.226624","SEMIMAJOR_AXIS":"6917.778","RCS_SIZE":"LARGE","COUNTRY_CODE":"US","OBJECT_TYPE":"PAYLOAD"},{"REV_AT_EPOCH":"4686","APOAPSIS":"541.087","FILE":"3650001","OBJECT_NAME":"STARLINK-3327","PERIAPSIS":"538.353","ARG_OF_PERICENTER":"41.6142","MEAN_MOTION_DDOT":"0.0000000000000","CLASSIFICATION_TYPE":"U","ELEMENT_SET_NO":"999","CENTER_NAME":"EARTH","RA_OF_ASC_NODE":"227.1734","GP_ID":"217275824","COUNTRY_CODE":"US","OBJECT_TYPE":"PAYLOAD","EPOCH":"2022-11-09T20:47:18.435840","SEMIMAJOR_AXIS":"6917.855","RCS_SIZE":"LARGE","MEAN_MOTION":"15.08848203","LAUNCH_DATE":"2022-01-06","BSTAR":"-0.00003913800000","SITE":"AFETR","PERIOD":"95.437","ECCENTRICITY":"0.00019760","TLE_LINE2":"2 50819  53.2166 227.1734 0001976  41.6142 318.5000 15.08848203 46865","REF_FRAME":"TEME","TLE_LINE1":"1 50819U 22001S   22313.86618560 -.00000911  00000-0 -39138-4 0  9990","DECAY_DATE":null,"MEAN_MOTION_DOT":"-0.00000911","INCLINATION":"53.2166","OBJECT_ID":"2022-001S","MEAN_ANOMALY":"318.5000","NORAD_CAT_ID":"50819","EPHEMERIS_TYPE":"0","MEAN_ELEMENT_THEORY":"SGP4","TIME_SYSTEM":"UTC"},{"FILE":"3649959","OBJECT_NAME":"STARLINK-3339","PERIAPSIS":"538.278","APOAPSIS":"541.297","REV_AT_EPOCH":"4813","MEAN_MOTION_DDOT":"0.0000000000000","ARG_OF_PERICENTER":"39.2119","ELEMENT_SET_NO":"999","CLASSIFICATION_TYPE":"U","GP_ID":"217251602","RA_OF_ASC_NODE":"227.2583","CENTER_NAME":"EARTH","SEMIMAJOR_AXIS":"6917.923","RCS_SIZE":"LARGE","EPOCH":"2022-11-09T20:20:48.268032","OBJECT_TYPE":"PAYLOAD","COUNTRY_CODE":"US","MEAN_MOTION":"15.08826102","LAUNCH_DATE":"2022-01-06","BSTAR":"0.00026489000000","OBJECT_ID":"2022-001T","TLE_LINE2":"2 50820  53.2158 227.2583 0002182  39.2119 320.9030 15.08826102 48134","TLE_LINE1":"1 50820U 22001T   22313.84778088  .00003929  00000-0  26489-3 0  9996","DECAY_DATE":null,"MEAN_MOTION_DOT":"0.00003929","REF_FRAME":"TEME","INCLINATION":"53.2158","ECCENTRICITY":"0.00021820","SITE":"AFETR","PERIOD":"95.438","TIME_SYSTEM":"UTC","MEAN_ELEMENT_THEORY":"SGP4","NORAD_CAT_ID":"50820","MEAN_ANOMALY":"320.9030","EPHEMERIS_TYPE":"0"},{"APOAPSIS":"541.573","REV_AT_EPOCH":"4800","FILE":"3649986","OBJECT_NAME":"STARLINK-3346","PERIAPSIS":"537.851","MEAN_MOTION_DDOT":"0.0000000000000","ARG_OF_PERICENTER":"38.4367","CLASSIFICATION_TYPE":"U","ELEMENT_SET_NO":"999","CENTER_NAME":"EARTH","RA_OF_ASC_NODE":"230.2874","GP_ID":"217251627","OBJECT_TYPE":"PAYLOAD","COUNTRY_CODE":"US","RCS_SIZE":"LARGE","SEMIMAJOR_AXIS":"6917.847","EPOCH":"2022-11-09T04:05:46.318272","BSTAR":"0.00005801100000","LAUNCH_DATE":"2022-01-06","MEAN_MOTION":"15.08850962","ECCENTRICITY":"0.00026900","PERIOD":"95.437","SITE":"AFETR","OBJECT_ID":"2022-001U","REF_FRAME":"TEME","TLE_LINE1":"1 50821U 22001U   22313.17067498  .00000635  00000-0  58011-4 0  9997","DECAY_DATE":null,"MEAN_MOTION_DOT":"0.00000635","INCLINATION":"53.2161","TLE_LINE2":"2 50821  53.2161 230.2874 0002690  38.4367 321.6817 15.08850962 48004","MEAN_ELEMENT_THEORY":"SGP4","EPHEMERIS_TYPE":"0","NORAD_CAT_ID":"50821","MEAN_ANOMALY":"321.6817","TIME_SYSTEM":"UTC"},{"REV_AT_EPOCH":"4805","APOAPSIS":"540.878","OBJECT_NAME":"STARLINK-3343","FILE":"3649610","PERIAPSIS":"538.191","ARG_OF_PERICENTER":"48.1669","MEAN_MOTION_DDOT":"0.0000000000000","CLASSIFICATION_TYPE":"U","ELEMENT_SET_NO":"999","CENTER_NAME":"EARTH","RA_OF_ASC_NODE":"228.7785","GP_ID":"217243235","COUNTRY_CODE":"US","OBJECT_TYPE":"PAYLOAD","EPOCH":"2022-11-09T12:13:15.156480","SEMIMAJOR_AXIS":"6917.670","RCS_SIZE":"LARGE","BSTAR":"0.00173850000000","LAUNCH_DATE":"2022-01-06","MEAN_MOTION":"15.08908928","PERIOD":"95.433","SITE":"AFETR","ECCENTRICITY":"0.00019420","TLE_LINE2":"2 50822  53.2148 228.7785 0001942  48.1669 311.9488 15.08908928 48052","REF_FRAME":"TEME","TLE_LINE1":"1 50822U 22001V   22313.50920320  .00027541  00000-0  17385-2 0  9999","DECAY_DATE":null,"MEAN_MOTION_DOT":"0.00027541","INCLINATION":"53.2148","OBJECT_ID":"2022-001V","NORAD_CAT_ID":"50822","MEAN_ANOMALY":"311.9488","EPHEMERIS_TYPE":"0","MEAN_ELEMENT_THEORY":"SGP4","TIME_SYSTEM":"UTC"},{"LAUNCH_DATE":"2022-01-06","MEAN_MOTION":"15.08833694","BSTAR":"-0.00003276100000","OBJECT_TYPE":"PAYLOAD","COUNTRY_CODE":"US","RCS_SIZE":"LARGE","SEMIMAJOR_AXIS":"6917.900","EPOCH":"2022-11-09T19:22:33.261888","MEAN_ELEMENT_THEORY":"SGP4","EPHEMERIS_TYPE":"0","NORAD_CAT_ID":"50823","MEAN_ANOMALY":"305.3911","TIME_SYSTEM":"UTC","ECCENTRICITY":"0.00019970","PERIOD":"95.438","SITE":"AFETR","OBJECT_ID":"2022-001W","REF_FRAME":"TEME","TLE_LINE1":"1 50823U 22001W   22313.80732942 -.00000809  00000-0 -32761-4 0  9991","DECAY_DATE":null,"MEAN_MOTION_DOT":"-0.00000809","INCLINATION":"53.2175","TLE_LINE2":"2 50823  53.2175 227.4422 0001997  54.7267 305.3911 15.08833694 46855","MEAN_MOTION_DDOT":"0.0000000000000","ARG_OF_PERICENTER":"54.7267","APOAPSIS":"541.146","REV_AT_EPOCH":"4685","OBJECT_NAME":"STARLINK-3334","FILE":"3650001","PERIAPSIS":"538.383","RA_OF_ASC_NODE":"227.4422","CENTER_NAME":"EARTH","GP_ID":"217276325","CLASSIFICATION_TYPE":"U","ELEMENT_SET_NO":"999"},{"RCS_SIZE":"LARGE","SEMIMAJOR_AXIS":"6917.838","EPOCH":"2022-11-09T21:40:17.629248","OBJECT_TYPE":"PAYLOAD","COUNTRY_CODE":"US","BSTAR":"0.00021212000000","LAUNCH_DATE":"2022-01-06","MEAN_MOTION":"15.08853755","OBJECT_ID":"2022-001X","TLE_LINE1":"1 50824U 22001X   22313.90298182  .00003091  00000-0  21212-3 0  9998","DECAY_DATE":null,"REF_FRAME":"TEME","MEAN_MOTION_DOT":"0.00003091","INCLINATION":"53.2161","TLE_LINE2":"2 50824  53.2161 227.0114 0001863  52.5398 307.5764 15.08853755 46869","ECCENTRICITY":"0.00018630","SITE":"AFETR","PERIOD":"95.437","TIME_SYSTEM":"UTC","MEAN_ELEMENT_THEORY":"SGP4","EPHEMERIS_TYPE":"0","NORAD_CAT_ID":"50824","MEAN_ANOMALY":"307.5764","FILE":"3650001","OBJECT_NAME":"STARLINK-3340","PERIAPSIS":"538.415","APOAPSIS":"540.992","REV_AT_EPOCH":"4686","MEAN_MOTION_DDOT":"0.0000000000000","ARG_OF_PERICENTER":"52.5398","ELEMENT_SET_NO":"999","CLASSIFICATION_TYPE":"U","GP_ID":"217275073","RA_OF_ASC_NODE":"227.0114","CENTER_NAME":"EARTH"},{"FILE":"3649911","PERIAPSIS":"538.081","OBJECT_NAME":"STARLINK-3332","APOAPSIS":"541.244","REV_AT_EPOCH":"4800","MEAN_MOTION_DDOT":"0.0000000000000","ARG_OF_PERICENTER":"15.8792","ELEMENT_SET_NO":"999","CLASSIFICATION_TYPE":"U","GP_ID":"217250103","CENTER_NAME":"EARTH","RA_OF_ASC_NODE":"230.8400","RCS_SIZE":"LARGE","SEMIMAJOR_AXIS":"6917.797","EPOCH":"2022-11-09T01:10:53.300064","OBJECT_TYPE":"PAYLOAD","COUNTRY_CODE":"US","BSTAR":"0.00025359000000","LAUNCH_DATE":"2022-01-06","MEAN_MOTION":"15.08867235","OBJECT_ID":"2022-001Y","TLE_LINE1":"1 50825U 22001Y   22313.04922801  .00003753  00000-0  25359-3 0  9997","DECAY_DATE":null,"INCLINATION":"53.2155","MEAN_MOTION_DOT":"0.00003753","REF_FRAME":"TEME","TLE_LINE2":"2 50825  53.2155 230.8400 0002286  15.8792 344.2271 15.08867235 48000","ECCENTRICITY":"0.00022860","SITE":"AFETR","PERIOD":"95.436","TIME_SYSTEM":"UTC","MEAN_ELEMENT_THEORY":"SGP4","EPHEMERIS_TYPE":"0","NORAD_CAT_ID":"50825","MEAN_ANOMALY":"344.2271"}];
